{
  "norad_id": 63014,
  "name": "STARLINK-11578 [DTC]",
  "history": [
    {
      "epoch": "2026-03-28T09:42:03.671424Z",
      "apogee_km": 357.77925567637067,
      "perigee_km": 354.7063581704706,
      "latitude_deg": 2.0122741967610566e-05,
      "longitude_deg": 111.5042813943585,
      "height_km": 355.92206949337066,
      "semi_major_axis_km": 6734.37980692342,
      "eccentricity": 0.00022815,
      "inclination_deg": 43.0032,
      "raan_deg": 82.8447,
      "arg_perigee_deg": 273.5161,
      "mean_anomaly_deg": 86.5446,
      "mean_motion_rev_day": 15.70928261
    }
  ]
}